43072,IRIDIUM 116,2017,100.4,860.0,+,86.4,Active,1,LEO,USA,USA,Commercial/Government,Communications,Falcon,1 43072U 17083C   24058.43457448  .00000136  00000+0  41504-4 0  9990,2 43072  86.3980 313.3995 0002226  83.2052 276.9397 14.34218050323668,14.3421805,0.0002226,LEO
43073,IRIDIUM 130,2017,100.4,860.0,+,86.4,Active,1,LEO,USA,USA,Commercial/Government,Communications,Falcon,1 43073U 17083D   24058.40285142  .00000191  00000+0  61027-4 0  9991,2 43073  86.3989 313.6065 0001957  89.0437 271.0983 14.34214869323605,14.34214869,0.0001957,LEO
43074,IRIDIUM 151,2017,100.4,860.0,+,86.4,Active,1,LEO,USA,USA,Commercial/Government,Communications,Falcon,1 43074U 17083E   24058.44725319  .00000355  00000+0  11983-3 0  9998,2 43074  86.3984 313.4327 0002124  75.9275 284.2157 14.34216443323633,14.34216443,0.0002124,LEO
43075,IRIDIUM 134,2017,100.4,860.0,+,86.4,Active,1,LEO,USA,USA,Commercial/Government,Communications,Falcon,1 43075U 17083F   24058.62485050  .00000196  00000+0  62815-4 0  9998,2 43075  86.3983 313.3554 0002140  90.7926 269.3515 14.34218770323626,14.3421877,0.000214,LEO
43076,IRIDIUM 137,2017,100.4,860.0,+,86.4,Active,1,LEO,USA,USA,Commercial/Government,Communications,Falcon,1 43076U 17083G   24058.21892870  .00000234  00000+0  76647-4 0  9997,2 43076  86.3985 313.6010 0002400  77.9833 282.1632 14.34218666323630,14.34218666,0.00024,LEO
43077,IRIDIUM 141,2017,100.4,860.0,+,86.4,Active,1,LEO,USA,USA,Commercial/Government,Communications,Falcon,1 43077U 17083H   24058.28235256  .00000341  00000+0  11464-3 0  9998,2 43077  86.3980 313.4527 0001970  85.5626 274.5794 14.34220581323647,14.34220581,0.000197,LEO
43078,IRIDIUM 153,2017,100.4,860.0,+,86.39,Active,1,LEO,USA,USA,Commercial/Government,Communications,Falcon,1 43078U 17083J   24058.58336315  .00000318  00000+0  10632-3 0  9990,2 43078  86.3931 281.7663 0001653  77.5883 282.5498 14.34216042324790,14.34216042,0.0001653,LEO
43079,IRIDIUM 131,2017,100.4,860.0,+,86.4,Active,1,LEO,USA,USA,Commercial/Government,Communications,Falcon,1 43079U 17083K   24058.61850697  .00000395  00000+0  13404-3 0  9994,2 43079  86.3986 313.4422 0002174  82.7266 277.4176 14.34220782323622,14.34220782,0.0002174,LEO
